NORAD_CAT_ID,OBJECT_NAME,OBJECT_TYPE,EPOCH,MEAN_MOTION,ECCENTRICITY,INCLINATION,RA_OF_ASC_NODE,ARG_OF_PERICENTER,MEAN_ANOMALY,BSTAR,MEAN_MOTION_DOT,MEAN_MOTION_DDOT,TLE_LINE0,TLE_LINE1,TLE_LINE2,SEMIMAJOR_AXIS,PERIOD,APOGEE,PERIGEE,DECAYED
53992.0,STARLINK-5108,PAYLOAD,2023-02-25 08:49:44,15.08830679,0.0001749,53.2155,149.5722,93.713,266.4062,6.7382e-05,7.84e-06,0.0,0 STARLINK-5108,1 53992U 22125AE  23056.36787237  .00000784  00000-0  67382-4 0  9998,2 53992  53.2155 149.5722 0001749  93.7130 266.4062 15.08830679 22215,6917.909,95.438,540.984,538.564,0.0
53992.0,STARLINK-5108,PAYLOAD,2023-02-25 12:00:30,15.08824186,0.0001437,53.2147,148.9762,94.0853,266.0303,-7.0471e-05,-1.409e-05,0.0,0 STARLINK-5108,1 53992U 22125AE  23056.50035567 -.00001409  00000-0 -70471-4 0  9996,2 53992  53.2147 148.9762 0001437  94.0853 266.0303 15.08824186 22156,6917.929,95.439,540.788,538.8,0.0
53992.0,STARLINK-5108,PAYLOAD,2023-02-25 15:11:17,15.08831047,0.0001208,53.2157,148.3802,98.0528,262.0601,5.9265e-05,6.55e-06,0.0,0 STARLINK-5108,1 53992U 22125AE  23056.63283647  .00000655  00000-0  59265-4 0  9992,2 53992  53.2157 148.3802 0001208  98.0528 262.0601 15.08831047 22178,6917.908,95.438,540.608,538.937,0.0
53992.0,STARLINK-5108,PAYLOAD,2023-02-26 10:15:53,15.088585,0.0001116,53.215,144.8118,94.2537,265.8582,0.00044335,6.779e-05,0.0,0 STARLINK-5108,1 53992U 22125AE  23057.42770213  .00006779  00000-0  44335-3 0  9994,2 53992  53.2150 144.8118 0001116  94.2537 265.8582 15.08858500 22372,6917.824,95.436,540.461,538.917,0.0
53992.0,STARLINK-5108,PAYLOAD,2023-02-26 13:26:39,15.08870787,0.0001105,53.2135,144.2165,85.818,274.2938,0.0012347,0.00019433,0.0,0 STARLINK-5108,1 53992U 22125AE  23057.56018342  .00019433  00000-0  12347-2 0  9995,2 53992  53.2135 144.2165 0001105  85.8180 274.2938 15.08870787 22313,6917.786,95.436,540.416,538.887,0.0
53992.0,STARLINK-5108,PAYLOAD,2023-02-26 16:37:25,15.08890353,0.0001124,53.2131,143.6213,82.3425,277.7695,0.0019827,0.00031451,0.0,0 STARLINK-5108,1 53992U 22125AE  23057.69265923  .00031451  00000-0  19827-2 0  9992,2 53992  53.2131 143.6213 0001124  82.3425 277.7695 15.08890353 22411,6917.726,95.434,540.369,538.814,0.0
53992.0,STARLINK-5108,PAYLOAD,2023-02-26 22:58:58,15.08850481,0.0001051,53.2134,142.4311,96.8792,263.232,0.00021839,3.191e-05,0.0,0 STARLINK-5108,1 53992U 22125AE  23057.95762407  .00003191  00000-0  21839-3 0  9997,2 53992  53.2134 142.4311 0001051  96.8792 263.2320 15.08850481 22453,6917.848,95.437,540.44,538.986,0.0
53992.0,STARLINK-5108,PAYLOAD,2023-02-27 10:06:40,15.08846483,0.0001325,53.2136,140.3504,101.596,258.5181,0.0014753,0.00023274,0.0,0 STARLINK-5108,1 53992U 22125AE  23058.42130651  .00023274  00000-0  14753-2 0  9990,2 53992  53.2136 140.3504 0001325 101.5960 258.5181 15.08846483 22449,6917.861,95.437,540.642,538.809,0.0
53992.0,STARLINK-5108,PAYLOAD,2023-02-27 16:28:12,15.08904432,0.0001306,53.2134,139.16,108.4527,251.6607,0.0050277,0.00080789,0.0,0 STARLINK-5108,1 53992U 22125AE  23058.68625963  .00080789  00000-0  50277-2 0  9998,2 53992  53.2134 139.1600 0001306 108.4527 251.6607 15.08904432 22563,6917.683,95.433,540.452,538.645,0.0
53992.0,STARLINK-5108,PAYLOAD,2023-02-27 22:49:45,15.08847854,0.0001392,53.2133,137.97,88.3616,271.7536,0.00088352,0.00013804,0.0,0 STARLINK-5108,1 53992U 22125AE  23058.95122660  .00013804  00000-0  88352-3 0  9994,2 53992  53.2133 137.9700 0001392  88.3616 271.7536 15.08847854 22602,6917.856,95.437,540.684,538.758,0.0
53992.0,STARLINK-5108,PAYLOAD,2023-02-28 11:32:50,15.08867023,9.85e-05,53.2136,135.5909,87.2555,272.855,0.0023486,0.00037316,0.0,0 STARLINK-5108,1 53992U 22125AE  23059.48114261  .00037316  00000-0  23486-2 0  9991,2 53992  53.2136 135.5909 0000985  87.2555 272.8550 15.08867023 22605,6917.798,95.436,540.344,538.981,0.0
53992.0,STARLINK-5108,PAYLOAD,2023-02-28 16:18:59,15.08874399,0.0001186,53.2139,134.6986,91.8595,268.2533,0.002059,0.00032664,0.0,0 STARLINK-5108,1 53992U 22125AE  23059.67985933  .00032664  00000-0  20590-2 0  9998,2 53992  53.2139 134.6986 0001186  91.8595 268.2533 15.08874399 22639,6917.775,95.435,540.461,538.82,0.0
53992.0,STARLINK-5108,PAYLOAD,2023-03-01 11:23:39,15.08812265,0.0001287,53.2143,131.1309,81.6671,278.4467,0.002285,0.00036237,0.0,0 STARLINK-5108,1 53992U 22125AE  23060.47476571  .00036237  00000-0  22850-2 0  9992,2 53992  53.2143 131.1309 0001287  81.6671 278.4467 15.08812265 22834,6917.965,95.439,540.721,538.94,0.0
53992.0,STARLINK-5108,PAYLOAD,2023-03-01 14:34:26,15.08810526,0.0001401,53.2145,130.5362,70.9444,289.17,0.0015895,0.00025079,0.0,0 STARLINK-5108,1 53992U 22125AE  23060.60724950  .00025079  00000-0  15895-2 0  9997,2 53992  53.2145 130.5362 0001401  70.9444 289.1700 15.08810526 22854,6917.97,95.439,540.805,538.866,0.0
53992.0,STARLINK-5108,PAYLOAD,2023-03-02 16:00:35,15.08884496,0.0001504,53.215,125.7785,68.0186,292.0966,0.0020515,0.00032553,0.0,0 STARLINK-5108,1 53992U 22125AE  23061.66708214  .00032553  00000-0  20515-2 0  9999,2 53992  53.2150 125.7785 0001504  68.0186 292.0966 15.08884496 23013,6917.744,95.435,540.65,538.569,0.0
53992.0,STARLINK-5108,PAYLOAD,2023-03-03 04:43:40,15.08871872,0.0001759,53.2151,123.4013,53.2582,306.8571,0.0014167,0.0002235,0.0,0 STARLINK-5108,1 53992U 22125AE  23062.19699911  .00022350  00000-0  14167-2 0  9991,2 53992  53.2151 123.4013 0001759  53.2582 306.8571 15.08871872 23099,6917.783,95.436,540.865,538.431,0.0
53992.0,STARLINK-5108,PAYLOAD,2023-03-03 09:29:49,15.08886051,0.000147,53.2149,122.5071,67.8661,292.2487,0.0024313,0.00038668,0.0,0 STARLINK-5108,1 53992U 22125AE  23062.39571393  .00038668  00000-0  24313-2 0  9999,2 53992  53.2149 122.5071 0001470  67.8661 292.2487 15.08886051 23043,6917.74,95.435,540.622,538.588,0.0
53992.0,STARLINK-5108,PAYLOAD,2023-03-03 14:15:58,15.08900183,0.0001626,53.215,121.6155,66.073,294.0433,0.0027761,0.00044244,0.0,0 STARLINK-5108,1 53992U 22125AE  23062.59442818  .00044244  00000-0  27761-2 0  9997,2 53992  53.2150 121.6155 0001626  66.0730 294.0433 15.08900183 23155,6917.696,95.434,540.686,538.437,0.0
53992.0,STARLINK-5108,PAYLOAD,2023-03-03 20:37:31,15.08849068,0.0001914,53.2147,120.425,77.6047,282.5159,0.0010421,0.0001634,0.0,0 STARLINK-5108,1 53992U 22125AE  23062.85939093  .00016340  00000-0  10421-2 0  9993,2 53992  53.2147 120.4250 0001914  77.6047 282.5159 15.08849068 23110,6917.853,95.437,541.042,538.394,0.0
53992.0,STARLINK-5108,PAYLOAD,2023-03-04 09:20:36,15.08843358,0.0001586,53.2148,118.0472,89.4648,270.6525,0.0003904,5.931e-05,0.0,0 STARLINK-5108,1 53992U 22125AE  23063.38931198  .00005931  00000-0  39040-3 0  9993,2 53992  53.2148 118.0472 0001586  89.4648 270.6525 15.08843358 23271,6917.87,95.437,540.832,538.638,0.0
53992.0,STARLINK-5108,PAYLOAD,2023-03-04 20:28:18,15.08836211,0.0001126,53.2146,115.9639,99.6356,260.4763,0.00031172,4.676e-05,0.0,0 STARLINK-5108,1 53992U 22125AE  23063.85299325  .00004676  00000-0  31172-3 0  9997,2 53992  53.2146 115.9639 0001126  99.6356 260.4763 15.08836211 23269,6917.892,95.438,540.536,538.978,0.0
53992.0,STARLINK-5108,PAYLOAD,2023-03-05 12:22:10,15.08840605,0.0001478,53.2148,112.9902,91.6951,268.421,0.0006043,9.343e-05,0.0,0 STARLINK-5108,1 53992U 22125AE  23064.51539878  .00009343  00000-0  60430-3 0  9996,2 53992  53.2148 112.9902 0001478  91.6951 268.4210 15.08840605 23362,6917.879,95.438,540.766,538.721,0.0
53992.0,STARLINK-5108,PAYLOAD,2023-03-05 20:19:06,15.08840447,0.0001462,53.2147,111.5024,92.5438,267.5721,0.00059879,9.255e-05,0.0,0 STARLINK-5108,1 53992U 22125AE  23064.84660010  .00009255  00000-0  59879-3 0  9992,2 53992  53.2147 111.5024 0001462  92.5438 267.5721 15.08840447 23499,6917.879,95.438,540.755,538.733,0.0
53992.0,STARLINK-5108,PAYLOAD,2023-03-06 20:09:52,15.08847285,0.000142,53.214,107.0426,95.8446,264.2708,0.00038948,5.917e-05,0.0,0 STARLINK-5108,1 53992U 22125AE  23065.84019610  .00005917  00000-0  38948-3 0  9992,2 53992  53.2140 107.0426 0001420  95.8446 264.2708 15.08847285 23561,6917.858,95.437,540.705,538.741,0.0
53992.0,STARLINK-5108,PAYLOAD,2023-03-07 08:52:58,15.08836419,0.0001525,53.2157,104.6596,117.6397,242.475,2.7882e-05,1.56e-06,0.0,0 STARLINK-5108,1 53992U 22125AE  23066.37011925  .00000156  00000-0  27882-4 0  9998,2 53992  53.2157 104.6596 0001525 117.6397 242.4750 15.08836419 23724,6917.891,95.438,540.811,538.701,0.0
53992.0,STARLINK-5108,PAYLOAD,2023-03-07 13:39:07,15.08850222,0.0001363,53.2154,103.7695,111.7224,248.3914,0.00038944,5.917e-05,0.0,0 STARLINK-5108,1 53992U 22125AE  23066.56883700  .00005917  00000-0  38944-3 0  9997,2 53992  53.2154 103.7695 0001363 111.7224 248.3914 15.08850222 23753,6917.849,95.437,540.657,538.771,0.0
53992.0,STARLINK-5108,PAYLOAD,2023-03-08 02:22:13,15.08835787,0.0001057,53.2151,101.3931,86.8719,273.2394,0.00028562,4.26e-05,0.0,0 STARLINK-5108,1 53992U 22125AE  23067.09876519  .00004260  00000-0  28562-3 0  9991,2 53992  53.2151 101.3931 0001057  86.8719 273.2394 15.08835787 23835,6917.893,95.438,540.489,539.027,0.0
53992.0,STARLINK-5108,PAYLOAD,2023-03-08 13:29:54,15.08867117,9.94e-05,53.2145,99.31,95.1692,264.9414,0.0017964,0.00028439,0.0,0 STARLINK-5108,1 53992U 22125AE  23067.56244102  .00028439  00000-0  17964-2 0  9997,2 53992  53.2145  99.3100 0000994  95.1692 264.9414 15.08867117 23904,6917.798,95.436,540.35,538.975,0.0
53992.0,STARLINK-5108,PAYLOAD,2023-03-09 11:45:18,15.08879923,0.0001014,53.2147,95.1471,100.5157,259.5949,0.0023882,0.00037967,0.0,0 STARLINK-5108,1 53992U 22125AE  23068.48979582  .00037967  00000-0  23882-2 0  9998,2 53992  53.2147  95.1471 0001014 100.5157 259.5949 15.08879923 24049,6917.758,95.435,540.325,538.922,0.0
53992.0,STARLINK-5108,PAYLOAD,2023-03-10 08:25:18,15.08860856,0.0001212,53.2151,91.2799,90.0931,270.02,0.0010348,0.00016229,0.0,0 STARLINK-5108,1 53992U 22125AE  23069.35091387  .00016229  00000-0  10348-2 0  9994,2 53992  53.2151  91.2799 0001212  90.0931 270.0200 15.08860856 24174,6917.817,95.436,540.52,538.843,0.0
